CCSDS_OMM_VERS = 2.0
CREATION_DATE  = 
ORIGINATOR     = 

OBJECT_NAME    = PROGRESS-MS 32
OBJECT_ID      = 2025-204A
CENTER_NAME    = EARTH
REF_FRAME      = TEME
TIME_SYSTEM    = UTC
MEAN_ELEMENT_THEORY = SGP/SGP4

EPOCH          = 2025-10-27T16:24:36.478656
MEAN_MOTION    = 15.49527127
ECCENTRICITY   = .00047051
INCLINATION    = 51.6344
RA_OF_ASC_NODE = 10.4932
ARG_OF_PERICENTER = 346.2107
MEAN_ANOMALY   = 13.8753

EPHEMERIS_TYPE = 0
CLASSIFICATION_TYPE = U
NORAD_CAT_ID   = 65586
ELEMENT_SET_NO = 999
REV_AT_EPOCH   = 27
BSTAR          = .28486893E-3
MEAN_MOTION_DOT = .1557E-3
MEAN_MOTION_DDOT = 0

CCSDS_OMM_VERS = 2.0
CREATION_DATE  = 
ORIGINATOR     = 

OBJECT_NAME    = CYGNUS NG-23
OBJECT_ID      = 2025-208A
CENTER_NAME    = EARTH
REF_FRAME      = TEME
TIME_SYSTEM    = UTC
MEAN_ELEMENT_THEORY = SGP/SGP4

EPOCH          = 2025-10-27T16:24:36.478656
MEAN_MOTION    = 15.49527127
ECCENTRICITY   = .00047051
INCLINATION    = 51.6344
RA_OF_ASC_NODE = 10.4932
ARG_OF_PERICENTER = 346.2107
MEAN_ANOMALY   = 13.8753

EPHEMERIS_TYPE = 0
CLASSIFICATION_TYPE = U
NORAD_CAT_ID   = 65616
ELEMENT_SET_NO = 999
REV_AT_EPOCH   = 22
BSTAR          = .28486893E-3
MEAN_MOTION_DOT = .1557E-3
MEAN_MOTION_DDOT = 0

CCSDS_OMM_VERS = 2.0
CREATION_DATE  = 
ORIGINATOR     = 

OBJECT_NAME    = DRAGONFLY
OBJECT_ID      = 1998-067XH
CENTER_NAME    = EARTH
REF_FRAME      = TEME
TIME_SYSTEM    = UTC
MEAN_ELEMENT_THEORY = SGP/SGP4

EPOCH          = 2025-10-27T14:57:17.587008
MEAN_MOTION    = 15.58609431
ECCENTRICITY   = .00027954
INCLINATION    = 51.6317
RA_OF_ASC_NODE = 9.3422
ARG_OF_PERICENTER = 49.4848
MEAN_ANOMALY   = 310.6388

EPHEMERIS_TYPE = 0
CLASSIFICATION_TYPE = U
NORAD_CAT_ID   = 65729
ELEMENT_SET_NO = 999
REV_AT_EPOCH   = 594
BSTAR          = .10990276E-2
MEAN_MOTION_DOT = .86356E-3
MEAN_MOTION_DDOT = 0

CCSDS_OMM_VERS = 2.0
CREATION_DATE  = 
ORIGINATOR     = 

OBJECT_NAME    = 1998-067XJ
OBJECT_ID      = 1998-067XJ
CENTER_NAME    = EARTH
REF_FRAME      = TEME
TIME_SYSTEM    = UTC
MEAN_ELEMENT_THEORY = SGP/SGP4

EPOCH          = 2025-10-27T13:16:33.628800
MEAN_MOTION    = 15.65383349
ECCENTRICITY   = .00101132
INCLINATION    = 51.6300
RA_OF_ASC_NODE = 8.8724
ARG_OF_PERICENTER = 21.7379
MEAN_ANOMALY   = 338.4043

EPHEMERIS_TYPE = 0
CLASSIFICATION_TYPE = U
NORAD_CAT_ID   = 65730
ELEMENT_SET_NO = 999
REV_AT_EPOCH   = 594
BSTAR          = .20483966E-2
MEAN_MOTION_DOT = .213817E-2
MEAN_MOTION_DDOT = 0

CCSDS_OMM_VERS = 2.0
CREATION_DATE  = 
ORIGINATOR     = 

OBJECT_NAME    = 1998-067XK
OBJECT_ID      = 1998-067XK
CENTER_NAME    = EARTH
REF_FRAME      = TEME
TIME_SYSTEM    = UTC
MEAN_ELEMENT_THEORY = SGP/SGP4

EPOCH          = 2025-10-27T13:51:38.926368
MEAN_MOTION    = 15.56899836
ECCENTRICITY   = .00044088
INCLINATION    = 51.6328
RA_OF_ASC_NODE = 9.7884
ARG_OF_PERICENTER = 22.7277
MEAN_ANOMALY   = 337.3909

EPHEMERIS_TYPE = 0
CLASSIFICATION_TYPE = U
NORAD_CAT_ID   = 65731
ELEMENT_SET_NO = 999
REV_AT_EPOCH   = 593
BSTAR          = .85334151E-3
MEAN_MOTION_DOT = .62583E-3
MEAN_MOTION_DDOT = 0

CCSDS_OMM_VERS = 2.0
CREATION_DATE  = 
ORIGINATOR     = 

OBJECT_NAME    = RSP-03
OBJECT_ID      = 1998-067XL
CENTER_NAME    = EARTH
REF_FRAME      = TEME
TIME_SYSTEM    = UTC
MEAN_ELEMENT_THEORY = SGP/SGP4

EPOCH          = 2025-10-27T13:38:34.466208
MEAN_MOTION    = 15.57730144
ECCENTRICITY   = .00050766
INCLINATION    = 51.6322
RA_OF_ASC_NODE = 9.7273
ARG_OF_PERICENTER = 22.9591
MEAN_ANOMALY   = 337.1627

EPHEMERIS_TYPE = 0
CLASSIFICATION_TYPE = U
NORAD_CAT_ID   = 65732
ELEMENT_SET_NO = 999
REV_AT_EPOCH   = 594
BSTAR          = .97194586E-3
MEAN_MOTION_DOT = .73724E-3
MEAN_MOTION_DDOT = 0

CCSDS_OMM_VERS = 2.0
CREATION_DATE  = 
ORIGINATOR     = 

OBJECT_NAME    = GHS-01
OBJECT_ID      = 1998-067XM
CENTER_NAME    = EARTH
REF_FRAME      = TEME
TIME_SYSTEM    = UTC
MEAN_ELEMENT_THEORY = SGP/SGP4

EPOCH          = 2025-10-27T11:43:42.542976
MEAN_MOTION    = 15.59169468
ECCENTRICITY   = .00031789
INCLINATION    = 51.6329
RA_OF_ASC_NODE = 9.9460
ARG_OF_PERICENTER = 44.4958
MEAN_ANOMALY   = 315.6289

EPHEMERIS_TYPE = 0
CLASSIFICATION_TYPE = U
NORAD_CAT_ID   = 65733
ELEMENT_SET_NO = 999
REV_AT_EPOCH   = 593
BSTAR          = .12255749E-2
MEAN_MOTION_DOT = .98585E-3
MEAN_MOTION_DDOT = 0

CCSDS_OMM_VERS = 2.0
CREATION_DATE  = 
ORIGINATOR     = 

OBJECT_NAME    = YOTSUBA-KULOVER
OBJECT_ID      = 1998-067XN
CENTER_NAME    = EARTH
REF_FRAME      = TEME
TIME_SYSTEM    = UTC
MEAN_ELEMENT_THEORY = SGP/SGP4

EPOCH          = 2025-10-27T14:18:25.493760
MEAN_MOTION    = 15.52626532
ECCENTRICITY   = .00023847
INCLINATION    = 51.6336
RA_OF_ASC_NODE = 10.6590
ARG_OF_PERICENTER = 317.2290
MEAN_ANOMALY   = 42.8515

EPHEMERIS_TYPE = 0
CLASSIFICATION_TYPE = U
NORAD_CAT_ID   = 65941
ELEMENT_SET_NO = 999
REV_AT_EPOCH   = 267
BSTAR          = .83561083E-3
MEAN_MOTION_DOT = .52258E-3
MEAN_MOTION_DDOT = 0

CCSDS_OMM_VERS = 2.0
CREATION_DATE  = 
ORIGINATOR     = 

OBJECT_NAME    = BOTAN
OBJECT_ID      = 1998-067XP
CENTER_NAME    = EARTH
REF_FRAME      = TEME
TIME_SYSTEM    = UTC
MEAN_ELEMENT_THEORY = SGP/SGP4

EPOCH          = 2025-10-27T21:56:29.108256
MEAN_MOTION    = 15.53322548
ECCENTRICITY   = .00043851
INCLINATION    = 51.6334
RA_OF_ASC_NODE = 9.0341
ARG_OF_PERICENTER = 343.0556
MEAN_ANOMALY   = 17.0287

EPHEMERIS_TYPE = 0
CLASSIFICATION_TYPE = U
NORAD_CAT_ID   = 65942
ELEMENT_SET_NO = 999
REV_AT_EPOCH   = 272
BSTAR          = .11945839E-2
MEAN_MOTION_DOT = .77088E-3
MEAN_MOTION_DDOT = 0

CCSDS_OMM_VERS = 2.0
CREATION_DATE  = 
ORIGINATOR     = 

OBJECT_NAME    = E-KAGAKU-1
OBJECT_ID      = 1998-067XQ
CENTER_NAME    = EARTH
REF_FRAME      = TEME
TIME_SYSTEM    = UTC
MEAN_ELEMENT_THEORY = SGP/SGP4

EPOCH          = 2025-10-27T14:17:50.765280
MEAN_MOTION    = 15.52640998
ECCENTRICITY   = .00040399
INCLINATION    = 51.6341
RA_OF_ASC_NODE = 10.6560
ARG_OF_PERICENTER = 330.0783
MEAN_ANOMALY   = 29.9975

EPHEMERIS_TYPE = 0
CLASSIFICATION_TYPE = U
NORAD_CAT_ID   = 65943
ELEMENT_SET_NO = 999
REV_AT_EPOCH   = 267
BSTAR          = .80921681E-3
MEAN_MOTION_DOT = .50617E-3
MEAN_MOTION_DDOT = 0

CCSDS_OMM_VERS = 2.0
CREATION_DATE  = 
ORIGINATOR     = 

OBJECT_NAME    = HRC MONOBLOCK CAMERA
OBJECT_ID      = 1998-067XR
CENTER_NAME    = EARTH
REF_FRAME      = TEME
TIME_SYSTEM    = UTC
MEAN_ELEMENT_THEORY = SGP/SGP4

EPOCH          = 2025-10-27T17:52:16.629888
MEAN_MOTION    = 15.50272290
ECCENTRICITY   = .00041451
INCLINATION    = 51.6329
RA_OF_ASC_NODE = 10.1507
ARG_OF_PERICENTER = 353.9198
MEAN_ANOMALY   = 6.1740

EPHEMERIS_TYPE = 0
CLASSIFICATION_TYPE = U
NORAD_CAT_ID   = 66052
ELEMENT_SET_NO = 999
REV_AT_EPOCH   = 169
BSTAR          = .56756679E-3
MEAN_MOTION_DOT = .32388E-3
MEAN_MOTION_DDOT = 0

CCSDS_OMM_VERS = 2.0
CREATION_DATE  = 
ORIGINATOR     = 

OBJECT_NAME    = HTV-X 1
OBJECT_ID      = 2025-241A
CENTER_NAME    = EARTH
REF_FRAME      = TEME
TIME_SYSTEM    = UTC
MEAN_ELEMENT_THEORY = SGP/SGP4

EPOCH          = 2025-10-27T11:51:43.149024
MEAN_MOTION    = 15.52723727
ECCENTRICITY   = .0004046
INCLINATION    = 51.6338
RA_OF_ASC_NODE = 11.4824
ARG_OF_PERICENTER = 344.0379
MEAN_ANOMALY   = 16.0483

EPHEMERIS_TYPE = 0
CLASSIFICATION_TYPE = U
NORAD_CAT_ID   = 66174
ELEMENT_SET_NO = 999
REV_AT_EPOCH   = 24
BSTAR          = .16773E-3
MEAN_MOTION_DOT = .10095E-3
MEAN_MOTION_DDOT = 0

